{
  "type": "FeatureCollection",
  "features": [
    {
      "type": "Feature",
      "properties": {
        "norad_id": 41019,
        "name": "GPS BIIF-11 (PRN 10)",
        "group": "gnss",
        "lat": 56.09195444981688,
        "lon": 114.70349749864174,
        "alt_km": 20422.20413277985,
        "timestamp": "2025-12-06T22:38:42.971477+00:00",
        "meta_object_name": "GPS BIIF-11 (PRN 10)",
        "meta_object_id": "2015-062A",
        "meta_epoch": "2025-12-06T07:52:58.423872",
        "meta_mean_motion": 2.0056703,
        "meta_eccentricity": 0.01106332,
        "meta_inclination": 56.8275,
        "meta_ra_of_asc_node": 38.2504,
        "meta_arg_of_pericenter": 229.7544,
        "meta_mean_anomaly": 129.3288,
        "meta_ephemeris_type": 0,
        "meta_classification_type": "U",
        "meta_norad_cat_id": 41019,
        "meta_element_set_no": 999,
        "meta_rev_at_epoch": 7396,
        "meta_bstar": 0,
        "meta_mean_motion_dot": -6.9e-07,
        "meta_mean_motion_ddot": 0,
        "tle_line1": "1 41019U 15062A   25340.32845398 -.00000069  00000+0  00000+0 0  9999",
        "tle_line2": "2 41019  56.8275  38.2504 0110633 229.7544 129.3288  2.00567030 73960"
      },
      "geometry": {
        "type": "Point",
        "coordinates": [
          114.70349749864174,
          56.09195444981688
        ]
      }
    },
    {
      "type": "Feature",
      "properties": {
        "norad_id": 41028,
        "name": "GSAT-15 (GAGAN/PRN 139)",
        "group": "gnss",
        "lat": 0.026856790906434773,
        "lon": 149.1133905259203,
        "alt_km": 35785.93147219181,
        "timestamp": "2025-12-06T22:38:42.971489+00:00",
        "meta_object_name": "GSAT-15 (GAGAN/PRN 139)",
        "meta_object_id": "2015-065A",
        "meta_epoch": "2025-12-06T12:23:56.856192",
        "meta_mean_motion": 1.00271138,
        "meta_eccentricity": 0.00029952,
        "meta_inclination": 0.0397,
        "meta_ra_of_asc_node": 95.5688,
        "meta_arg_of_pericenter": 141.6843,
        "meta_mean_anomaly": 117.7928,
        "meta_ephemeris_type": 0,
        "meta_classification_type": "U",
        "meta_norad_cat_id": 41028,
        "meta_element_set_no": 999,
        "meta_rev_at_epoch": 3686,
        "meta_bstar": 0,
        "meta_mean_motion_dot": -2.51e-06,
        "meta_mean_motion_ddot": 0,
        "tle_line1": "1 41028U 15065A   25340.51663028 -.00000251  00000+0  00000+0 0  9994",
        "tle_line2": "2 41028   0.0397  95.5688 0002995 141.6843 117.7928  1.00271138 36860"
      },
      "geometry": {
        "type": "Point",
        "coordinates": [
          149.1133905259203,
          0.026856790906434773
        ]
      }
    },
    {
      "type": "Feature",
      "properties": {
        "norad_id": 41174,
        "name": "GSAT0209 (GALILEO 12)",
        "group": "gnss",
        "lat": -5.589101357410881,
        "lon": -69.64887426902011,
        "alt_km": 23230.02568663624,
        "timestamp": "2025-12-06T22:38:42.971503+00:00",
        "meta_object_name": "GSAT0209 (GALILEO 12)",
        "meta_object_id": "2015-079A",
        "meta_epoch": "2025-12-01T22:43:10.411392",
        "meta_mean_motion": 1.70474306,
        "meta_eccentricity": 0.0002352,
        "meta_inclination": 55.7062,
        "meta_ra_of_asc_node": 106.6773,
        "meta_arg_of_pericenter": 357.4206,
        "meta_mean_anomaly": 2.5431,
        "meta_ephemeris_type": 0,
        "meta_classification_type": "U",
        "meta_norad_cat_id": 41174,
        "meta_element_set_no": 999,
        "meta_rev_at_epoch": 6141,
        "meta_bstar": 0,
        "meta_mean_motion_dot": 3.5e-07,
        "meta_mean_motion_ddot": 0,
        "tle_line1": "1 41174U 15079A   25335.94664828  .00000035  00000+0  00000+0 0  9990",
        "tle_line2": "2 41174  55.7062 106.6773 0002352 357.4206   2.5431  1.70474306 61412"
      },
      "geometry": {
        "type": "Point",
        "coordinates": [
          -69.64887426902011,
          -5.589101357410881
        ]
      }
    },
    {
      "type": "Feature",
      "properties": {
        "norad_id": 41175,
        "name": "GSAT0208 (GALILEO 11)",
        "group": "gnss",
        "lat": 40.382564952035054,
        "lon": 141.9644714544752,
        "alt_km": 23213.23001108674,
        "timestamp": "2025-12-06T22:38:42.971514+00:00",
        "meta_object_name": "GSAT0208 (GALILEO 11)",
        "meta_object_id": "2015-079B",
        "meta_epoch": "2025-12-05T16:28:14.683584",
        "meta_mean_motion": 1.70474159,
        "meta_eccentricity": 0.00019173,
        "meta_inclination": 55.707,
        "meta_ra_of_asc_node": 106.5718,
        "meta_arg_of_pericenter": 7.3332,
        "meta_mean_anomaly": 352.6208,
        "meta_ephemeris_type": 0,
        "meta_classification_type": "U",
        "meta_norad_cat_id": 41175,
        "meta_element_set_no": 999,
        "meta_rev_at_epoch": 6189,
        "meta_bstar": 0,
        "meta_mean_motion_dot": 8e-08,
        "meta_mean_motion_ddot": 0,
        "tle_line1": "1 41175U 15079B   25339.68628106  .00000008  00000+0  00000+0 0  9995",
        "tle_line2": "2 41175  55.7070 106.5718 0001917   7.3332 352.6208  1.70474159 61896"
      },
      "geometry": {
        "type": "Point",
        "coordinates": [
          141.9644714544752,
          40.382564952035054
        ]
      }
    },
    {
      "type": "Feature",
      "properties": {
        "norad_id": 41241,
        "name": "IRNSS-1E",
        "group": "gnss",
        "lat": 31.646989627803485,
        "lon": 169.82368561181576,
        "alt_km": 35768.399527953436,
        "timestamp": "2025-12-06T22:38:42.971525+00:00",
        "meta_object_name": "IRNSS-1E",
        "meta_object_id": "2016-003A",
        "meta_epoch": "2025-12-05T15:56:23.100864",
        "meta_mean_motion": 1.00276837,
        "meta_eccentricity": 0.00219002,
        "meta_inclination": 32.8101,
        "meta_ra_of_asc_node": 62.5566,
        "meta_arg_of_pericenter": 186.7894,
        "meta_mean_anomaly": 176.2103,
        "meta_ephemeris_type": 0,
        "meta_classification_type": "U",
        "meta_norad_cat_id": 41241,
        "meta_element_set_no": 999,
        "meta_rev_at_epoch": 3614,
        "meta_bstar": 0,
        "meta_mean_motion_dot": -3.14e-06,
        "meta_mean_motion_ddot": 0,
        "tle_line1": "1 41241U 16003A   25339.66415626 -.00000314  00000+0  00000+0 0  9997",
        "tle_line2": "2 41241  32.8101  62.5566 0021900 186.7894 176.2103  1.00276837 36142"
      },
      "geometry": {
        "type": "Point",
        "coordinates": [
          169.82368561181576,
          31.646989627803485
        ]
      }
    },
    {
      "type": "Feature",
      "properties": {
        "norad_id": 41328,
        "name": "GPS BIIF-12 (PRN 32)",
        "group": "gnss",
        "lat": 19.87460038471945,
        "lon": 111.5107160462316,
        "alt_km": 20368.644665149703,
        "timestamp": "2025-12-06T22:38:42.971574+00:00",
        "meta_object_name": "GPS BIIF-12 (PRN 32)",
        "meta_object_id": "2016-007A",
        "meta_epoch": "2025-12-05T09:55:37.612128",
        "meta_mean_motion": 2.00560998,
        "meta_eccentricity": 0.00917952,
        "meta_inclination": 55.402,
        "meta_ra_of_asc_node": 97.1478,
        "meta_arg_of_pericenter": 243.3887,
        "meta_mean_anomaly": 115.6411,
        "meta_ephemeris_type": 0,
        "meta_classification_type": "U",
        "meta_norad_cat_id": 41328,
        "meta_element_set_no": 999,
        "meta_rev_at_epoch": 7195,
        "meta_bstar": 0,
        "meta_mean_motion_dot": -1.1e-07,
        "meta_mean_motion_ddot": 0,
        "tle_line1": "1 41328U 16007A   25339.41362977 -.00000011  00000+0  00000+0 0  9994",
        "tle_line2": "2 41328  55.4020  97.1478 0091795 243.3887 115.6411  2.00560998 71958"
      },
      "geometry": {
        "type": "Point",
        "coordinates": [
          111.5107160462316,
          19.87460038471945
        ]
      }
    },
    {
      "type": "Feature",
      "properties": {
        "norad_id": 41330,
        "name": "COSMOS 2514 (751)",
        "group": "gnss",
        "lat": 37.56648228908532,
        "lon": -19.51804324814604,
        "alt_km": 19156.95161680765,
        "timestamp": "2025-12-06T22:38:42.971588+00:00",
        "meta_object_name": "COSMOS 2514 (751)",
        "meta_object_id": "2016-008A",
        "meta_epoch": "2025-12-06T10:03:33.651936",
        "meta_mean_motion": 2.13102537,
        "meta_eccentricity": 0.00123458,
        "meta_inclination": 65.1374,
        "meta_ra_of_asc_node": 319.6204,
        "meta_arg_of_pericenter": 219.9856,
        "meta_mean_anomaly": 139.9172,
        "meta_ephemeris_type": 0,
        "meta_classification_type": "U",
        "meta_norad_cat_id": 41330,
        "meta_element_set_no": 999,
        "meta_rev_at_epoch": 7651,
        "meta_bstar": 0,
        "meta_mean_motion_dot": -4.9e-07,
        "meta_mean_motion_ddot": 0,
        "tle_line1": "1 41330U 16008A   25340.41913949 -.00000049  00000+0  00000+0 0  9992",
        "tle_line2": "2 41330  65.1374 319.6204 0012345 219.9856 139.9172  2.13102537 76514"
      },
      "geometry": {
        "type": "Point",
        "coordinates": [
          -19.51804324814604,
          37.56648228908532
        ]
      }
    }
  ]
}